{
  "type": "FeatureCollection",
  "features": [
    {
      "type": "Feature",
      "properties": {
        "norad_id": 40894,
        "name": "GAOFEN-9 01",
        "group": "resource",
        "lat": -29.695832809071153,
        "lon": -168.4274214758589,
        "alt_km": 644.1065664747375,
        "timestamp": "2025-12-02T13:52:16.932968+00:00",
        "meta_object_name": "GAOFEN-9 01",
        "meta_object_id": "2015-047A",
        "meta_epoch": "2025-12-02T06:26:58.756704",
        "meta_mean_motion": 14.82378294,
        "meta_eccentricity": 0.00289756,
        "meta_inclination": 97.6557,
        "meta_ra_of_asc_node": 15.6761,
        "meta_arg_of_pericenter": 67.264,
        "meta_mean_anomaly": 293.1632,
        "meta_ephemeris_type": 0,
        "meta_classification_type": "U",
        "meta_norad_cat_id": 40894,
        "meta_element_set_no": 999,
        "meta_rev_at_epoch": 55101,
        "meta_bstar": 0.00018312988,
        "meta_mean_motion_dot": 1.425e-05,
        "meta_mean_motion_ddot": 0,
        "tle_line1": "1 40894U 15047A   25336.26873561  .00001425  00000+0  18313-3 0  9999",
        "tle_line2": "2 40894  97.6557  15.6761 0028975  67.2640 293.1632 14.82378294551014"
      },
      "geometry": {
        "type": "Point",
        "coordinates": [
          -168.4274214758589,
          -29.695832809071153
        ]
      }
    },
    {
      "type": "Feature",
      "properties": {
        "norad_id": 41026,
        "name": "YAOGAN-28",
        "group": "resource",
        "lat": -81.69930615061035,
        "lon": 175.84041781810055,
        "alt_km": 504.257556705983,
        "timestamp": "2025-12-02T13:52:16.932979+00:00",
        "meta_object_name": "YAOGAN-28",
        "meta_object_id": "2015-064A",
        "meta_epoch": "2025-12-02T07:56:45.987648",
        "meta_mean_motion": 15.24068269,
        "meta_eccentricity": 0.00118529,
        "meta_inclination": 97.2794,
        "meta_ra_of_asc_node": 114.4196,
        "meta_arg_of_pericenter": 160.7642,
        "meta_mean_anomaly": 199.4046,
        "meta_ephemeris_type": 0,
        "meta_classification_type": "U",
        "meta_norad_cat_id": 41026,
        "meta_element_set_no": 999,
        "meta_rev_at_epoch": 56066,
        "meta_bstar": 0.00051114556,
        "meta_mean_motion_dot": 0.0001237,
        "meta_mean_motion_ddot": 0,
        "tle_line1": "1 41026U 15064A   25336.33108782  .00012370  00000+0  51115-3 0  9998",
        "tle_line2": "2 41026  97.2794 114.4196 0011852 160.7642 199.4046 15.24068269560661"
      },
      "geometry": {
        "type": "Point",
        "coordinates": [
          175.84041781810055,
          -81.69930615061035
        ]
      }
    },
    {
      "type": "Feature",
      "properties": {
        "norad_id": 41038,
        "name": "YAOGAN-29",
        "group": "resource",
        "lat": 77.1681193950573,
        "lon": -38.54188589006826,
        "alt_km": 612.8385638896434,
        "timestamp": "2025-12-02T13:52:16.932989+00:00",
        "meta_object_name": "YAOGAN-29",
        "meta_object_id": "2015-069A",
        "meta_epoch": "2025-12-02T07:02:03.437376",
        "meta_mean_motion": 14.82863359,
        "meta_eccentricity": 8.475e-05,
        "meta_inclination": 98.0229,
        "meta_ra_of_asc_node": 359.4308,
        "meta_arg_of_pericenter": 10.6997,
        "meta_mean_anomaly": 349.4234,
        "meta_ephemeris_type": 0,
        "meta_classification_type": "U",
        "meta_norad_cat_id": 41038,
        "meta_element_set_no": 999,
        "meta_rev_at_epoch": 54144,
        "meta_bstar": 8.0732192e-05,
        "meta_mean_motion_dot": 6e-06,
        "meta_mean_motion_ddot": 0,
        "tle_line1": "1 41038U 15069A   25336.29309534  .00000600  00000+0  80732-4 0  9990",
        "tle_line2": "2 41038  98.0229 359.4308 0000847  10.6997 349.4234 14.82863359541447"
      },
      "geometry": {
        "type": "Point",
        "coordinates": [
          -38.54188589006826,
          77.1681193950573
        ]
      }
    },
    {
      "type": "Feature",
      "properties": {
        "norad_id": 41167,
        "name": "KENT RIDGE 1",
        "group": "resource",
        "lat": 2.347371231406991,
        "lon": 97.71980660078368,
        "alt_km": 504.19181684901196,
        "timestamp": "2025-12-02T13:52:16.932999+00:00",
        "meta_object_name": "KENT RIDGE 1",
        "meta_object_id": "2015-077B",
        "meta_epoch": "2025-12-02T05:15:28.609632",
        "meta_mean_motion": 15.21503241,
        "meta_eccentricity": 0.0008704,
        "meta_inclination": 14.9806,
        "meta_ra_of_asc_node": 289.1971,
        "meta_arg_of_pericenter": 341.7782,
        "meta_mean_anomaly": 18.2228,
        "meta_ephemeris_type": 0,
        "meta_classification_type": "U",
        "meta_norad_cat_id": 41167,
        "meta_element_set_no": 999,
        "meta_rev_at_epoch": 55103,
        "meta_bstar": 0.00021780995,
        "meta_mean_motion_dot": 5.81e-05,
        "meta_mean_motion_ddot": 0,
        "tle_line1": "1 41167U 15077B   25336.21908113  .00005810  00000+0  21781-3 0  9998",
        "tle_line2": "2 41167  14.9806 289.1971 0008704 341.7782  18.2228 15.21503241551038"
      },
      "geometry": {
        "type": "Point",
        "coordinates": [
          97.71980660078368,
          2.347371231406991
        ]
      }
    },
    {
      "type": "Feature",
      "properties": {
        "norad_id": 41194,
        "name": "GAOFEN-4",
        "group": "resource",
        "lat": -0.09011474908434539,
        "lon": 25.356892791924476,
        "alt_km": 35801.829479414744,
        "timestamp": "2025-12-02T13:52:16.933011+00:00",
        "meta_object_name": "GAOFEN-4",
        "meta_object_id": "2015-083A",
        "meta_epoch": "2025-12-02T01:52:21.643392",
        "meta_mean_motion": 1.00267088,
        "meta_eccentricity": 0.00035193,
        "meta_inclination": 0.1407,
        "meta_ra_of_asc_node": 80.5688,
        "meta_arg_of_pericenter": 110.0556,
        "meta_mean_anomaly": 14.3058,
        "meta_ephemeris_type": 0,
        "meta_classification_type": "U",
        "meta_norad_cat_id": 41194,
        "meta_element_set_no": 999,
        "meta_rev_at_epoch": 3655,
        "meta_bstar": 0,
        "meta_mean_motion_dot": -3.13e-06,
        "meta_mean_motion_ddot": 0,
        "tle_line1": "1 41194U 15083A   25336.07802828 -.00000313  00000+0  00000+0 0  9996",
        "tle_line2": "2 41194   0.1407  80.5688 0003519 110.0556  14.3058  1.00267088 36556"
      },
      "geometry": {
        "type": "Point",
        "coordinates": [
          25.356892791924476,
          -0.09011474908434539
        ]
      }
    },
    {
      "type": "Feature",
      "properties": {
        "norad_id": 41240,
        "name": "JASON-3",
        "group": "resource",
        "lat": 10.67722171609692,
        "lon": -176.00216256252952,
        "alt_km": 1312.5006666626614,
        "timestamp": "2025-12-02T13:52:16.933023+00:00",
        "meta_object_name": "JASON-3",
        "meta_object_id": "2016-002A",
        "meta_epoch": "2025-12-02T06:21:16.156512",
        "meta_mean_motion": 12.87625943,
        "meta_eccentricity": 0.00071506,
        "meta_inclination": 66.0392,
        "meta_ra_of_asc_node": 179.8471,
        "meta_arg_of_pericenter": 270.2728,
        "meta_mean_anomaly": 89.7471,
        "meta_ephemeris_type": 0,
        "meta_classification_type": "U",
        "meta_norad_cat_id": 41240,
        "meta_element_set_no": 999,
        "meta_rev_at_epoch": 46189,
        "meta_bstar": 0.00026009433,
        "meta_mean_motion_dot": 4e-08,
        "meta_mean_motion_ddot": 0,
        "tle_line1": "1 41240U 16002A   25336.26477033  .00000004  00000+0  26009-3 0  9994",
        "tle_line2": "2 41240  66.0392 179.8471 0007150 270.2728  89.7471 12.87625943461898"
      },
      "geometry": {
        "type": "Point",
        "coordinates": [
          -176.00216256252952,
          10.67722171609692
        ]
      }
    },
    {
      "type": "Feature",
      "properties": {
        "norad_id": 41335,
        "name": "SENTINEL-3A",
        "group": "resource",
        "lat": 28.819833144173263,
        "lon": 36.948491787138295,
        "alt_km": 800.9060713637637,
        "timestamp": "2025-12-02T13:52:16.933033+00:00",
        "meta_object_name": "SENTINEL-3A",
        "meta_object_id": "2016-011A",
        "meta_epoch": "2025-12-02T05:19:10.104672",
        "meta_mean_motion": 14.26740044,
        "meta_eccentricity": 0.00010007,
        "meta_inclination": 98.6221,
        "meta_ra_of_asc_node": 41.3862,
        "meta_arg_of_pericenter": 91.118,
        "meta_mean_anomaly": 269.0115,
        "meta_ephemeris_type": 0,
        "meta_classification_type": "U",
        "meta_norad_cat_id": 41335,
        "meta_element_set_no": 999,
        "meta_rev_at_epoch": 50997,
        "meta_bstar": 0.00010420971,
        "meta_mean_motion_dot": 2.09e-06,
        "meta_mean_motion_ddot": 0,
        "tle_line1": "1 41335U 16011A   25336.22164473  .00000209  00000+0  10421-3 0  9994",
        "tle_line2": "2 41335  98.6221  41.3862 0001000  91.1180 269.0115 14.26740044509977"
      },
      "geometry": {
        "type": "Point",
        "coordinates": [
          36.948491787138295,
          28.819833144173263
        ]
      }
    }
  ]
}